{
  "norad_id": 47821,
  "name": "STARLINK-2406",
  "history": [
    {
      "epoch": "2026-03-28T09:57:31.286016Z",
      "apogee_km": 476.2198277658472,
      "perigee_km": 474.2160438497158,
      "latitude_deg": 5.404764981563352e-05,
      "longitude_deg": -179.4327427595118,
      "height_km": 476.4220036327666,
      "semi_major_axis_km": 6853.354935807782,
      "eccentricity": 0.00014619,
      "inclination_deg": 53.1611,
      "raan_deg": 155.7833,
      "arg_perigee_deg": 107.787,
      "mean_anomaly_deg": 252.3291,
      "mean_motion_rev_day": 15.3019904
    }
  ]
}